start=new Date('2022-02-27T00:00:00.000Z').valueOf();
sats=[{"TLE_LINE2":"2 48285  53.0543 209.4030 0001400  77.1004 283.0141 15.06402671 46451","EPOCH":"2022-02-26T18:01:56.112096","MEAN_MOTION":"15.06402671","MEAN_MOTION_DDOT":"0.0000000000000","CENTER_NAME":"EARTH","CLASSIFICATION_TYPE":"U","REF_FRAME":"TEME","COUNTRY_CODE":"US","MEAN_ELEMENT_THEORY":"SGP4","RCS_SIZE":"LARGE","REV_AT_EPOCH":"4645","ARG_OF_PERICENTER":"77.1004","LAUNCH_DATE":"2021-04-29","EPHEMERIS_TYPE":"0","TLE_LINE1":"1 48285U 21036K   22057.75134389  .00001373  00000-0  11104-3 0  9999","NORAD_CAT_ID":"48285","ECCENTRICITY":"0.00014000","APOAPSIS":"548.175","OBJECT_ID":"2021-036K","FILE":"3327391","GP_ID":"197158815","TIME_SYSTEM":"UTC","BSTAR":"0.00011104000000","INCLINATION":"53.0543","PERIOD":"95.592","PERIAPSIS":"546.236","MEAN_ANOMALY":"283.0141","RA_OF_ASC_NODE":"209.4030","OBJECT_TYPE":"PAYLOAD","DECAY_DATE":null,"OBJECT_NAME":"STARLINK-2548","SEMIMAJOR_AXIS":"6925.340","MEAN_MOTION_DOT":"0.00001373","ELEMENT_SET_NO":"999","SITE":"AFETR"},{"SEMIMAJOR_AXIS":"6925.337","MEAN_MOTION_DOT":"0.00000387","ELEMENT_SET_NO":"999","OBJECT_NAME":"STARLINK-2547","SITE":"AFETR","RA_OF_ASC_NODE":"209.4330","OBJECT_TYPE":"PAYLOAD","DECAY_DATE":null,"PERIOD":"95.592","INCLINATION":"53.0563","PERIAPSIS":"546.211","MEAN_ANOMALY":"288.2544","BSTAR":"0.00004489600000","GP_ID":"197159065","TIME_SYSTEM":"UTC","APOAPSIS":"548.193","FILE":"3327391","OBJECT_ID":"2021-036L","ECCENTRICITY":"0.00014310","NORAD_CAT_ID":"48286","TLE_LINE1":"1 48286U 21036L   22057.74766206  .00000387  00000-0  44896-4 0  9997","EPHEMERIS_TYPE":"0","LAUNCH_DATE":"2021-04-29","ARG_OF_PERICENTER":"71.8601","MEAN_ELEMENT_THEORY":"SGP4","RCS_SIZE":"LARGE","REV_AT_EPOCH":"4645","CLASSIFICATION_TYPE":"U","MEAN_MOTION_DDOT":"0.0000000000000","CENTER_NAME":"EARTH","REF_FRAME":"TEME","COUNTRY_CODE":"US","MEAN_MOTION":"15.06403698","TLE_LINE2":"2 48286  53.0563 209.4330 0001431  71.8601 288.2544 15.06403698 46459","EPOCH":"2022-02-26T17:56:38.001984"},{"MEAN_MOTION":"15.06392667","COUNTRY_CODE":"US","MEAN_MOTION_DDOT":"0.0000000000000","CLASSIFICATION_TYPE":"U","CENTER_NAME":"EARTH","REF_FRAME":"TEME","TLE_LINE2":"2 48287  53.0548 209.4318 0001402  60.9117 299.2012 15.06392667 46453","EPOCH":"2022-02-26T17:51:19.791648","EPHEMERIS_TYPE":"0","TLE_LINE1":"1 48287U 21036M   22057.74397907  .00000236  00000-0  34751-4 0  9998","RCS_SIZE":"LARGE","REV_AT_EPOCH":"4645","MEAN_ELEMENT_THEORY":"SGP4","ARG_OF_PERICENTER":"60.9117","LAUNCH_DATE":"2021-04-29","TIME_SYSTEM":"UTC","GP_ID":"197160317","ECCENTRICITY":"0.00014020","NORAD_CAT_ID":"48287","APOAPSIS":"548.207","OBJECT_ID":"2021-036M","FILE":"3327391","DECAY_DATE":null,"RA_OF_ASC_NODE":"209.4318","OBJECT_TYPE":"PAYLOAD","SEMIMAJOR_AXIS":"6925.371","ELEMENT_SET_NO":"999","MEAN_MOTION_DOT":"0.00000236","OBJECT_NAME":"STARLINK-2566","SITE":"AFETR","BSTAR":"0.00003475100000","PERIAPSIS":"546.265","MEAN_ANOMALY":"299.2012","PERIOD":"95.593","INCLINATION":"53.0548"},{"COUNTRY_CODE":"US","REF_FRAME":"TEME","MEAN_MOTION_DDOT":"0.0000000000000","CLASSIFICATION_TYPE":"U","CENTER_NAME":"EARTH","MEAN_MOTION":"15.06389685","EPOCH":"2022-02-26T20:57:06.374880","TLE_LINE2":"2 48288  53.0559 208.8681 0001603  69.0694 291.0467 15.06389685 46477","TLE_LINE1":"1 48288U 21036N   22057.87299045  .00000071  00000-0  23700-4 0  9996","EPHEMERIS_TYPE":"0","LAUNCH_DATE":"2021-04-29","ARG_OF_PERICENTER":"69.0694","REV_AT_EPOCH":"4647","RCS_SIZE":"LARGE","MEAN_ELEMENT_THEORY":"SGP4","TIME_SYSTEM":"UTC","GP_ID":"197160063","OBJECT_ID":"2021-036N","FILE":"3327391","APOAPSIS":"548.355","ECCENTRICITY":"0.00016030","NORAD_CAT_ID":"48288","SITE":"AFETR","OBJECT_NAME":"STARLINK-2562","SEMIMAJOR_AXIS":"6925.380","MEAN_MOTION_DOT":"0.00000071","ELEMENT_SET_NO":"999","DECAY_DATE":null,"OBJECT_TYPE":"PAYLOAD","RA_OF_ASC_NODE":"208.8681","MEAN_ANOMALY":"291.0467","PERIAPSIS":"546.135","PERIOD":"95.593","INCLINATION":"53.0559","BSTAR":"0.00002370000000"},{"TLE_LINE2":"2 48289  53.0544 209.1641 0001338  72.8528 287.2608 15.06397149 46462","EPOCH":"2022-02-26T19:16:14.847168","MEAN_MOTION":"15.06397149","COUNTRY_CODE":"US","CLASSIFICATION_TYPE":"U","MEAN_MOTION_DDOT":"0.0000000000000","CENTER_NAME":"EARTH","REF_FRAME":"TEME","RCS_SIZE":"LARGE","REV_AT_EPOCH":"4646","MEAN_ELEMENT_THEORY":"SGP4","ARG_OF_PERICENTER":"72.8528","LAUNCH_DATE":"2021-04-29","EPHEMERIS_TYPE":"0","TLE_LINE1":"1 48289U 21036P   22057.80294962  .00000408  00000-0  46254-4 0  9996","ECCENTRICITY":"0.00013380","NORAD_CAT_ID":"48289","APOAPSIS":"548.149","OBJECT_ID":"2021-036P","FILE":"3327391","TIME_SYSTEM":"UTC","GP_ID":"197159316","BSTAR":"0.00004625400000","PERIAPSIS":"546.296","MEAN_ANOMALY":"287.2608","INCLINATION":"53.0544","PERIOD":"95.592","DECAY_DATE":null,"RA_OF_ASC_NODE":"209.1641","OBJECT_TYPE":"PAYLOAD","SEMIMAJOR_AXIS":"6925.357","OBJECT_NAME":"STARLINK-2545","MEAN_MOTION_DOT":"0.00000408","ELEMENT_SET_NO":"999","SITE":"AFETR"},{"MEAN_ELEMENT_THEORY":"SGP4","RCS_SIZE":"LARGE","REV_AT_EPOCH":"4647","ARG_OF_PERICENTER":"67.0824","LAUNCH_DATE":"2021-04-29","EPHEMERIS_TYPE":"0","TLE_LINE1":"1 48290U 21036Q   22057.86561213  .00000654  00000-0  62816-4 0  9995","TLE_LINE2":"2 48290  53.0548 208.9073 0001653  67.0824 293.0339 15.06402670 46472","EPOCH":"2022-02-26T20:46:28.888032","MEAN_MOTION":"15.06402670","CENTER_NAME":"EARTH","MEAN_MOTION_DDOT":"0.0000000000000","CLASSIFICATION_TYPE":"U","REF_FRAME":"TEME","COUNTRY_CODE":"US","BSTAR":"0.00006281600000","INCLINATION":"53.0548","PERIOD":"95.592","PERIAPSIS":"546.061","MEAN_ANOMALY":"293.0339","RA_OF_ASC_NODE":"208.9073","OBJECT_TYPE":"PAYLOAD","DECAY_DATE":null,"ELEMENT_SET_NO":"999","SEMIMAJOR_AXIS":"6925.340","MEAN_MOTION_DOT":"0.00000654","OBJECT_NAME":"STARLINK-2540","SITE":"AFETR","ECCENTRICITY":"0.00016530","NORAD_CAT_ID":"48290","APOAPSIS":"548.350","OBJECT_ID":"2021-036Q","FILE":"3327391","GP_ID":"197159566","TIME_SYSTEM":"UTC"},{"NORAD_CAT_ID":"48291","ECCENTRICITY":"0.00018070","OBJECT_ID":"2021-036R","FILE":"3327391","APOAPSIS":"548.503","GP_ID":"197159817","TIME_SYSTEM":"UTC","BSTAR":"0.00001974000000","PERIOD":"95.593","INCLINATION":"53.0550","MEAN_ANOMALY":"301.5462","PERIAPSIS":"546.000","OBJECT_TYPE":"PAYLOAD","RA_OF_ASC_NODE":"208.9170","DECAY_DATE":null,"SITE":"AFETR","SEMIMAJOR_AXIS":"6925.387","MEAN_MOTION_DOT":"0.00000012","ELEMENT_SET_NO":"999","OBJECT_NAME":"STARLINK-2555","EPOCH":"2022-02-26T20:41:11.070816","TLE_LINE2":"2 48291  53.0550 208.9170 0001807  58.5703 301.5462 15.06387531 46476","MEAN_MOTION":"15.06387531","REF_FRAME":"TEME","MEAN_MOTION_DDOT":"0.0000000000000","CENTER_NAME":"EARTH","CLASSIFICATION_TYPE":"U","COUNTRY_CODE":"US","MEAN_ELEMENT_THEORY":"SGP4","REV_AT_EPOCH":"4647","RCS_SIZE":"LARGE","ARG_OF_PERICENTER":"58.5703","LAUNCH_DATE":"2021-04-29","EPHEMERIS_TYPE":"0","TLE_LINE1":"1 48291U 21036R   22057.86193369  .00000012  00000-0  19740-4 0  9995"},{"MEAN_ELEMENT_THEORY":"SGP4","RCS_SIZE":"LARGE","REV_AT_EPOCH":"4646","ARG_OF_PERICENTER":"78.0236","LAUNCH_DATE":"2021-04-29","EPHEMERIS_TYPE":"0","TLE_LINE1":"1 48292U 21036S   22057.79095810  .00000257  00000-0  36141-4 0  9995","TLE_LINE2":"2 48292  53.0555 209.2325 0001448  78.0236 282.0916 15.06390144 46467","EPOCH":"2022-02-26T18:58:58.779840","MEAN_MOTION":"15.06390144","MEAN_MOTION_DDOT":"0.0000000000000","CENTER_NAME":"EARTH","CLASSIFICATION_TYPE":"U","REF_FRAME":"TEME","COUNTRY_CODE":"US","BSTAR":"0.00003614100000","INCLINATION":"53.0555","PERIOD":"95.593","PERIAPSIS":"546.241","MEAN_ANOMALY":"282.0916","RA_OF_ASC_NODE":"209.2325","OBJECT_TYPE":"PAYLOAD","DECAY_DATE":null,"MEAN_MOTION_DOT":"0.00000257","SEMIMAJOR_AXIS":"6925.379","OBJECT_NAME":"STARLINK-2542","ELEMENT_SET_NO":"999","SITE":"AFETR","NORAD_CAT_ID":"48292","ECCENTRICITY":"0.00014480","APOAPSIS":"548.247","FILE":"3327391","OBJECT_ID":"2021-036S","GP_ID":"197160564","TIME_SYSTEM":"UTC"},{"TLE_LINE2":"2 48293  53.0549 209.2417 0001617  69.7763 290.3399 15.06396483 46462","EPOCH":"2022-02-26T18:55:01.235136","MEAN_MOTION":"15.06396483","CLASSIFICATION_TYPE":"U","MEAN_MOTION_DDOT":"0.0000000000000","CENTER_NAME":"EARTH","REF_FRAME":"TEME","COUNTRY_CODE":"US","MEAN_ELEMENT_THEORY":"SGP4","RCS_SIZE":"LARGE","REV_AT_EPOCH":"4646","ARG_OF_PERICENTER":"69.7763","LAUNCH_DATE":"2021-04-29","EPHEMERIS_TYPE":"0","TLE_LINE1":"1 48293U 21036T   22057.78820874  .00000549  00000-0  55750-4 0  9992","NORAD_CAT_ID":"48293","ECCENTRICITY":"0.00016170","APOAPSIS":"548.344","OBJECT_ID":"2021-036T","FILE":"3327391","GP_ID":"197158816","TIME_SYSTEM":"UTC","BSTAR":"0.00005575000000","INCLINATION":"53.0549","PERIOD":"95.592","PERIAPSIS":"546.105","MEAN_ANOMALY":"290.3399","RA_OF_ASC_NODE":"209.2417","OBJECT_TYPE":"PAYLOAD","DECAY_DATE":null,"MEAN_MOTION_DOT":"0.00000549","SEMIMAJOR_AXIS":"6925.359","OBJECT_NAME":"STARLINK-2550","ELEMENT_SET_NO":"999","SITE":"AFETR"},{"APOAPSIS":"548.448","FILE":"3327391","OBJECT_ID":"2021-036U","ECCENTRICITY":"0.00017320","NORAD_CAT_ID":"48294","GP_ID":"197159066","TIME_SYSTEM":"UTC","INCLINATION":"53.0539","PERIOD":"95.593","PERIAPSIS":"546.049","MEAN_ANOMALY":"294.4648","BSTAR":"0.00003300800000","MEAN_MOTION_DOT":"0.00000210","SEMIMAJOR_AXIS":"6925.383","OBJECT_NAME":"STARLINK-2533","ELEMENT_SET_NO":"999","SITE":"AFETR","RA_OF_ASC_NODE":"208.9694","OBJECT_TYPE":"PAYLOAD","DECAY_DATE":null,"TLE_LINE2":"2 48294  53.0539 208.9694 0001732  65.6522 294.4648 15.06388711 46479","EPOCH":"2022-02-26T20:25:15.652704","CENTER_NAME":"EARTH","MEAN_MOTION_DDOT":"0.0000000000000","CLASSIFICATION_TYPE":"U","REF_FRAME":"TEME","COUNTRY_CODE":"US","MEAN_MOTION":"15.06388711","ARG_OF_PERICENTER":"65.6522","LAUNCH_DATE":"2021-04-29","MEAN_ELEMENT_THEORY":"SGP4","RCS_SIZE":"LARGE","REV_AT_EPOCH":"4647","TLE_LINE1":"1 48294U 21036U   22057.85087561  .00000210  00000-0  33008-4 0  9996","EPHEMERIS_TYPE":"0"}];
